SHIYAN-24C 01           
1 58650U 23206A   26068.89348774  .00002076  00000+0  18089-3 0  9992
2 58650  97.3976  41.7846 0003675 132.3262 227.8273 14.97903598120444
STARLINK-34434          
1 64422U 25129L   26068.42768415 -.00003311  00000+0 -26984-3 0  9997
2 64422  70.0009  75.2956 0003163 271.5115  88.5682 14.98323947 41243
